CCSDS_OMM_VERS = 2.0
CREATION_DATE  = 
ORIGINATOR     = 

OBJECT_NAME    = STARLINK-35343
OBJECT_ID      = 2026-003A
CENTER_NAME    = EARTH
REF_FRAME      = TEME
TIME_SYSTEM    = UTC
MEAN_ELEMENT_THEORY = SGP/SGP4

EPOCH          = 2026-01-27T12:00:01.999296
MEAN_MOTION    = 15.72267440
ECCENTRICITY   = .0001072
INCLINATION    = 42.9993
RA_OF_ASC_NODE = 102.9209
ARG_OF_PERICENTER = 286.5646
MEAN_ANOMALY   = 207.8294

EPHEMERIS_TYPE = 0
CLASSIFICATION_TYPE = U
NORAD_CAT_ID   = 67334
ELEMENT_SET_NO = 999
REV_AT_EPOCH   = 399
BSTAR          = -.1683E-1
MEAN_MOTION_DOT = -.2021307E-1
MEAN_MOTION_DDOT = 0

CCSDS_OMM_VERS = 2.0
CREATION_DATE  = 
ORIGINATOR     = 

OBJECT_NAME    = STARLINK-36486
OBJECT_ID      = 2026-003B
CENTER_NAME    = EARTH
REF_FRAME      = TEME
TIME_SYSTEM    = UTC
MEAN_ELEMENT_THEORY = SGP/SGP4

EPOCH          = 2026-01-27T12:00:01.999296
MEAN_MOTION    = 15.72257742
ECCENTRICITY   = .000097
INCLINATION    = 42.9992
RA_OF_ASC_NODE = 102.9161
ARG_OF_PERICENTER = 278.8138
MEAN_ANOMALY   = 217.5003

EPHEMERIS_TYPE = 0
CLASSIFICATION_TYPE = U
NORAD_CAT_ID   = 67335
ELEMENT_SET_NO = 999
REV_AT_EPOCH   = 405
BSTAR          = -.16694E-1
MEAN_MOTION_DOT = -.2006099E-1
MEAN_MOTION_DDOT = 0

CCSDS_OMM_VERS = 2.0
CREATION_DATE  = 
ORIGINATOR     = 

OBJECT_NAME    = STARLINK-36480
OBJECT_ID      = 2026-003C
CENTER_NAME    = EARTH
REF_FRAME      = TEME
TIME_SYSTEM    = UTC
MEAN_ELEMENT_THEORY = SGP/SGP4

EPOCH          = 2026-01-27T12:00:01.999296
MEAN_MOTION    = 15.72263242
ECCENTRICITY   = .0001092
INCLINATION    = 42.9992
RA_OF_ASC_NODE = 102.9115
ARG_OF_PERICENTER = 286.0016
MEAN_ANOMALY   = 212.2295

EPHEMERIS_TYPE = 0
CLASSIFICATION_TYPE = U
NORAD_CAT_ID   = 67336
ELEMENT_SET_NO = 999
REV_AT_EPOCH   = 405
BSTAR          = -.1679E-1
MEAN_MOTION_DOT = -.2016798E-1
MEAN_MOTION_DDOT = 0

CCSDS_OMM_VERS = 2.0
CREATION_DATE  = 
ORIGINATOR     = 

OBJECT_NAME    = STARLINK-36410
OBJECT_ID      = 2026-003D
CENTER_NAME    = EARTH
REF_FRAME      = TEME
TIME_SYSTEM    = UTC
MEAN_ELEMENT_THEORY = SGP/SGP4

EPOCH          = 2026-01-27T12:00:01.999296
MEAN_MOTION    = 15.72271833
ECCENTRICITY   = .0001211
INCLINATION    = 42.9991
RA_OF_ASC_NODE = 102.9066
ARG_OF_PERICENTER = 288.7434
MEAN_ANOMALY   = 211.3978

EPHEMERIS_TYPE = 0
CLASSIFICATION_TYPE = U
NORAD_CAT_ID   = 67337
ELEMENT_SET_NO = 999
REV_AT_EPOCH   = 405
BSTAR          = -.16868E-1
MEAN_MOTION_DOT = -.202579E-1
MEAN_MOTION_DDOT = 0

CCSDS_OMM_VERS = 2.0
CREATION_DATE  = 
ORIGINATOR     = 

OBJECT_NAME    = STARLINK-36413
OBJECT_ID      = 2026-003E
CENTER_NAME    = EARTH
REF_FRAME      = TEME
TIME_SYSTEM    = UTC
MEAN_ELEMENT_THEORY = SGP/SGP4

EPOCH          = 2026-01-27T12:00:01.999296
MEAN_MOTION    = 15.72260463
ECCENTRICITY   = .0001228
INCLINATION    = 42.9992
RA_OF_ASC_NODE = 102.9017
ARG_OF_PERICENTER = 282.7765
MEAN_ANOMALY   = 219.2888

EPHEMERIS_TYPE = 0
CLASSIFICATION_TYPE = U
NORAD_CAT_ID   = 67338
ELEMENT_SET_NO = 999
REV_AT_EPOCH   = 405
BSTAR          = -.16738E-1
MEAN_MOTION_DOT = -.2011143E-1
MEAN_MOTION_DDOT = 0

CCSDS_OMM_VERS = 2.0
CREATION_DATE  = 
ORIGINATOR     = 

OBJECT_NAME    = STARLINK-36451
OBJECT_ID      = 2026-003F
CENTER_NAME    = EARTH
REF_FRAME      = TEME
TIME_SYSTEM    = UTC
MEAN_ELEMENT_THEORY = SGP/SGP4

EPOCH          = 2026-01-27T12:00:01.999296
MEAN_MOTION    = 15.72260671
ECCENTRICITY   = .000106
INCLINATION    = 42.9992
RA_OF_ASC_NODE = 102.8963
ARG_OF_PERICENTER = 286.7375
MEAN_ANOMALY   = 217.2432

EPHEMERIS_TYPE = 0
CLASSIFICATION_TYPE = U
NORAD_CAT_ID   = 67339
ELEMENT_SET_NO = 999
REV_AT_EPOCH   = 405
BSTAR          = -.16733E-1
MEAN_MOTION_DOT = -.2010501E-1
MEAN_MOTION_DDOT = 0

CCSDS_OMM_VERS = 2.0
CREATION_DATE  = 
ORIGINATOR     = 

OBJECT_NAME    = STARLINK-36339
OBJECT_ID      = 2026-003G
CENTER_NAME    = EARTH
REF_FRAME      = TEME
TIME_SYSTEM    = UTC
MEAN_ELEMENT_THEORY = SGP/SGP4

EPOCH          = 2026-01-27T12:00:01.999296
MEAN_MOTION    = 15.72264115
ECCENTRICITY   = .0001118
INCLINATION    = 42.9993
RA_OF_ASC_NODE = 102.8922
ARG_OF_PERICENTER = 282.1671
MEAN_ANOMALY   = 223.7339

EPHEMERIS_TYPE = 0
CLASSIFICATION_TYPE = U
NORAD_CAT_ID   = 67340
ELEMENT_SET_NO = 999
REV_AT_EPOCH   = 405
BSTAR          = -.1681E-1
MEAN_MOTION_DOT = -.2019002E-1
MEAN_MOTION_DDOT = 0

CCSDS_OMM_VERS = 2.0
CREATION_DATE  = 
ORIGINATOR     = 

OBJECT_NAME    = STARLINK-36453
OBJECT_ID      = 2026-003H
CENTER_NAME    = EARTH
REF_FRAME      = TEME
TIME_SYSTEM    = UTC
MEAN_ELEMENT_THEORY = SGP/SGP4

EPOCH          = 2026-01-27T12:00:01.999296
MEAN_MOTION    = 15.72261760
ECCENTRICITY   = .0001052
INCLINATION    = 42.9993
RA_OF_ASC_NODE = 102.8866
ARG_OF_PERICENTER = 291.6459
MEAN_ANOMALY   = 216.1694

EPHEMERIS_TYPE = 0
CLASSIFICATION_TYPE = U
NORAD_CAT_ID   = 67341
ELEMENT_SET_NO = 999
REV_AT_EPOCH   = 405
BSTAR          = -.16769E-1
MEAN_MOTION_DOT = -.2014387E-1
MEAN_MOTION_DDOT = 0

CCSDS_OMM_VERS = 2.0
CREATION_DATE  = 
ORIGINATOR     = 

OBJECT_NAME    = STARLINK-36432
OBJECT_ID      = 2026-003J
CENTER_NAME    = EARTH
REF_FRAME      = TEME
TIME_SYSTEM    = UTC
MEAN_ELEMENT_THEORY = SGP/SGP4

EPOCH          = 2026-01-27T02:13:27.774912
MEAN_MOTION    = 15.74980182
ECCENTRICITY   = .0005282
INCLINATION    = 42.9978
RA_OF_ASC_NODE = 105.3431
ARG_OF_PERICENTER = 220.8098
MEAN_ANOMALY   = 139.2376

EPHEMERIS_TYPE = 0
CLASSIFICATION_TYPE = U
NORAD_CAT_ID   = 67342
ELEMENT_SET_NO = 999
REV_AT_EPOCH   = 242
BSTAR          = .27085067E-2
MEAN_MOTION_DOT = .436859E-2
MEAN_MOTION_DDOT = 0

CCSDS_OMM_VERS = 2.0
CREATION_DATE  = 
ORIGINATOR     = 

OBJECT_NAME    = STARLINK-36458
OBJECT_ID      = 2026-003K
CENTER_NAME    = EARTH
REF_FRAME      = TEME
TIME_SYSTEM    = UTC
MEAN_ELEMENT_THEORY = SGP/SGP4

EPOCH          = 2026-01-27T12:00:01.999296
MEAN_MOTION    = 15.72264878
ECCENTRICITY   = .0001111
INCLINATION    = 42.9994
RA_OF_ASC_NODE = 102.8775
ARG_OF_PERICENTER = 284.3191
MEAN_ANOMALY   = 227.3293

EPHEMERIS_TYPE = 0
CLASSIFICATION_TYPE = U
NORAD_CAT_ID   = 67343
ELEMENT_SET_NO = 999
REV_AT_EPOCH   = 405
BSTAR          = -.16792E-1
MEAN_MOTION_DOT = -.2017122E-1
MEAN_MOTION_DDOT = 0

CCSDS_OMM_VERS = 2.0
CREATION_DATE  = 
ORIGINATOR     = 

OBJECT_NAME    = STARLINK-36422
OBJECT_ID      = 2026-003L
CENTER_NAME    = EARTH
REF_FRAME      = TEME
TIME_SYSTEM    = UTC
MEAN_ELEMENT_THEORY = SGP/SGP4

EPOCH          = 2026-01-27T12:00:01.999296
MEAN_MOTION    = 15.72265556
ECCENTRICITY   = .0000983
INCLINATION    = 42.9994
RA_OF_ASC_NODE = 102.8716
ARG_OF_PERICENTER = 281.0208
MEAN_ANOMALY   = 232.5454

EPHEMERIS_TYPE = 0
CLASSIFICATION_TYPE = U
NORAD_CAT_ID   = 67344
ELEMENT_SET_NO = 999
REV_AT_EPOCH   = 404
BSTAR          = -.16817E-1
MEAN_MOTION_DOT = -.2019712E-1
MEAN_MOTION_DDOT = 0

CCSDS_OMM_VERS = 2.0
CREATION_DATE  = 
ORIGINATOR     = 

OBJECT_NAME    = STARLINK-35676
OBJECT_ID      = 2026-003M
CENTER_NAME    = EARTH
REF_FRAME      = TEME
TIME_SYSTEM    = UTC
MEAN_ELEMENT_THEORY = SGP/SGP4

EPOCH          = 2026-01-27T09:48:06.970464
MEAN_MOTION    = 15.75892266
ECCENTRICITY   = .0013982
INCLINATION    = 42.9982
RA_OF_ASC_NODE = 103.4085
ARG_OF_PERICENTER = 271.3757
MEAN_ANOMALY   = 88.5510

EPHEMERIS_TYPE = 0
CLASSIFICATION_TYPE = U
NORAD_CAT_ID   = 67345
ELEMENT_SET_NO = 999
REV_AT_EPOCH   = 247
BSTAR          = .36135E-2
MEAN_MOTION_DOT = .622537E-2
MEAN_MOTION_DDOT = 0

