STARLINK-35343          
1 67334U 26003A   26027.50002314 -.02021307  00000+0 -16830-1 0  9991
2 67334  42.9993 102.9209 0001072 286.5646 207.8294 15.72267440  3992
STARLINK-36486          
1 67335U 26003B   26027.50002314 -.02006099  00000+0 -16694-1 0  9991
2 67335  42.9992 102.9161 0000970 278.8138 217.5003 15.72257742  4053
STARLINK-36480          
1 67336U 26003C   26027.50002314 -.02016798  00000+0 -16790-1 0  9996
2 67336  42.9992 102.9115 0001092 286.0016 212.2295 15.72263242  4052
STARLINK-36410          
1 67337U 26003D   26027.50002314 -.02025790  00000+0 -16868-1 0  9995
2 67337  42.9991 102.9066 0001211 288.7434 211.3978 15.72271833  4056
STARLINK-36413          
1 67338U 26003E   26027.50002314 -.02011143  00000+0 -16738-1 0  9999
2 67338  42.9992 102.9017 0001228 282.7765 219.2888 15.72260463  4057
STARLINK-36451          
1 67339U 26003F   26027.50002314 -.02010501  00000+0 -16733-1 0  9992
2 67339  42.9992 102.8963 0001060 286.7375 217.2432 15.72260671  4056
STARLINK-36339          
1 67340U 26003G   26027.50002314 -.02019002  00000+0 -16810-1 0  9995
2 67340  42.9993 102.8922 0001118 282.1671 223.7339 15.72264115  4052
STARLINK-36453          
1 67341U 26003H   26027.50002314 -.02014387  00000+0 -16769-1 0  9990
2 67341  42.9993 102.8866 0001052 291.6459 216.1694 15.72261760  4059
STARLINK-36432          
1 67342U 26003J   26027.09268258  .00436859  00000+0  27085-2 0  9998
2 67342  42.9978 105.3431 0005282 220.8098 139.2376 15.74980182  2420
STARLINK-36458          
1 67343U 26003K   26027.50002314 -.02017122  00000+0 -16792-1 0  9998
2 67343  42.9994 102.8775 0001111 284.3191 227.3293 15.72264878  4051
STARLINK-36422          
1 67344U 26003L   26027.50002314 -.02019712  00000+0 -16817-1 0  9994
2 67344  42.9994 102.8716 0000983 281.0208 232.5454 15.72265556  4046
STARLINK-35676          
1 67345U 26003M   26027.40841401  .00622537  00000+0  36135-2 0  9999
2 67345  42.9982 103.4085 0013982 271.3757  88.5510 15.75892266  2478
